GLOBALSTAR M068         
1 32266U 07048D   24155.36316008 -.00000044  00000+0  33119-3 0  9990
2 32266  51.9906  17.0068 0001556  51.5548 119.2750 12.62791063769697
GLOBALSTAR M079         
1 37188U 10054A   24155.42910069 -.00000077  00000+0  14861-3 0  9992
2 37188  52.0022 212.7868 0000523 167.2143 205.4572 12.62270755628624
GLOBALSTAR M074         
1 37189U 10054B   24155.47561299 -.00000073  00000+0  16951-3 0  9993
2 37189  51.9997 212.0274 0000244 142.8241 320.4826 12.62269444629237
GLOBALSTAR M076         
1 37190U 10054C   24155.40287002 -.00000062  00000+0  23377-3 0  9993
2 37190  52.0012 212.3832 0000491 210.5720 163.6492 12.62261997628949
GLOBALSTAR M077         
1 37191U 10054D   24155.31044120 -.00000079  00000+0  13598-3 0  9998
2 37191  52.0045 169.4123 0000078 335.8840  37.0248 12.62273807629303
GLOBALSTAR M075         
1 37192U 10054E   24155.57445388 -.00000088  00000+0  90573-4 0  9997
2 37192  51.9945 254.3290 0000664 136.1576 237.7345 12.62275052628196
GLOBALSTAR M073         
1 37193U 10054F   24155.44966463 -.00000075  00000+0  15786-3 0  9994
2 37193  52.0032 168.2402 0000071 259.3537 265.7146 12.62266064630007
GLOBALSTAR M083         
1 37739U 11033A   24155.30038220 -.00000118  00000+0 -76923-4 0  9994
2 37739  51.9853 117.9408 0000471  64.1979  83.7795 12.62270102599005
GLOBALSTAR M088         
1 37740U 11033B   24155.35837454 -.00000086  00000+0  10124-3 0  9990
2 37740  51.9755  23.5747 0000922  88.4822  83.4096 12.62263792594556
GLOBALSTAR M091         
1 37741U 11033C   24155.49627973 -.00000082  00000+0  12306-3 0  9999
2 37741  52.0016 346.0343 0001158 103.4094 274.2376 12.62263291595360
GLOBALSTAR M085         
1 37742U 11033D   24155.64008139 -.00000093  00000+0  60101-4 0  9993
2 37742  51.9876 296.9685 0001033 120.0613 252.6057 12.62271595595899
GLOBALSTAR M081         
1 37743U 11033E   24155.14723223 -.00000098  00000+0  29696-4 0  9996
2 37743  51.9969 301.0236 0000988 130.8022  40.3001 12.62265533595979
GLOBALSTAR M089         
1 37744U 11033F   24155.54840221 -.00000086  00000+0  98206-4 0  9999
2 37744  51.9930 254.1038 0000382 170.5324 203.1022 12.62264451596870
GLOBALSTAR M084         
1 38040U 11080A   24155.16520053 -.00000090  00000+0  78266-4 0  9996
2 38040  51.9995 122.3524 0000410 357.0598  16.0847 12.62263105574804
GLOBALSTAR M080         
1 38041U 11080B   24155.23811166 -.00000092  00000+0  63487-4 0  9994
2 38041  52.0046 123.6044 0000385 313.9542 150.5872 12.62273356575077
GLOBALSTAR M082         
1 38042U 11080C   24155.50375265 -.00000109  00000+0 -28899-4 0  9998
2 38042  52.0084  78.2028 0001162  67.3903 104.1244 12.62269819575675
GLOBALSTAR M092         
1 38043U 11080D   24155.38407161 -.00000108  00000+0 -23323-4 0  9992
2 38043  52.0065 168.9226 0000164  22.5587  86.2402 12.62262876574114
GLOBALSTAR M090         
1 38044U 11080E   24155.52953067 -.00000101  00000+0  17626-4 0  9991
2 38044  51.9896  72.4202 0000871  70.1339  98.9377 12.62263612575792
GLOBALSTAR M086         
1 38045U 11080F   24155.55632718 -.00000112  00000+0 -47796-4 0  9996
2 38045  51.9908  72.8590 0000575 160.9870  10.7191 12.62271326575742
GLOBALSTAR M097         
1 39072U 13005A   24155.22880546 -.00000085  00000+0  10736-3 0  9995
2 39072  52.0064 348.0235 0001025 106.6068 253.4911 12.62263469522959
GLOBALSTAR M093         
1 39073U 13005B   24155.20217170 -.00000085  00000+0  10697-3 0  9997
2 39073  51.9828 342.0127 0001123 109.7909 250.3079 12.62259777522900
GLOBALSTAR M094         
1 39074U 13005C   24155.51884595 -.00000094  00000+0  54496-4 0  9999
2 39074  51.9957 255.0512 0000807 140.6257 219.4668 12.62266482524557
GLOBALSTAR M096         
1 39075U 13005D   24155.45279586 -.00000092  00000+0  64556-4 0  9997
2 39075  52.0086 303.4702 0001117 120.2510 239.8467 12.62266279523469
GLOBALSTAR M078         
1 39076U 13005E   24155.34757054 -.00000134  00000+0 -17073-3 0  9996
2 39076  51.9896  28.8177 0001691  69.4581 290.6466 12.62276280522073
GLOBALSTAR M095         
1 39077U 13005F   24155.37331776 -.00000061  00000+0  24114-3 0  9991
2 39077  51.9819  26.1196 0001433  87.1578 272.9453 12.62263603521936
GLOBALSTAR M087         
1 52888U 22064A   24155.58397641 -.00000088  00000+0  77322-4 0  9996
2 52888  51.9757 255.8157 0008891 332.1024  27.9399 13.37575641 95703
